OBJECT_NAME,OBJECT_ID,EPOCH,MEAN_MOTION,ECCENTRICITY,INCLINATION,RA_OF_ASC_NODE,ARG_OF_PERICENTER,MEAN_ANOMALY,EPHEMERIS_TYPE,CLASSIFICATION_TYPE,NORAD_CAT_ID,ELEMENT_SET_NO,REV_AT_EPOCH,BSTAR,MEAN_MOTION_DOT,MEAN_MOTION_DDOT
LEMUR-2-STARLIGHT,2025-276DY,2026-06-18T16:55:37.164000,14.99053840,.0015111,97.5254,240.2923,123.8840,236.3823,0,U,66783,999,3042,.3497E-3,.4196E-4,0
LEMUR-2-TARTIFLETTE,2025-276DZ,2026-06-18T10:28:54.562368,14.99079284,.0014066,97.5263,240.0399,130.8813,229.3631,0,U,66784,999,3038,.31579E-3,.3785E-4,0
LEMUR-2-VUKASIN,2025-276EA,2026-06-18T18:18:23.988960,15.00380830,.0005991,97.5302,240.6552,120.8957,239.2857,0,U,66785,999,3038,.3345E-3,.4145E-4,0
LEMUR-2-HOTSPUR-TOM,2025-276EB,2026-06-18T16:42:50.563584,14.98975134,.0015411,97.5258,240.2719,123.2453,237.0249,0,U,66786,999,3035,.37592E-3,.4506E-4,0
LEMUR-2-MYRA,2025-276EC,2026-06-18T17:27:52.168032,15.00265154,.0016765,97.5213,240.5583,136.4998,223.7552,0,U,66787,999,3044,.52324E-3,.6515E-4,0
LEMUR-2 FIKRETDENGIZ,2026-004A,2026-06-18T17:56:55.078080,14.88334861,.0010249,97.8017,168.2816,128.7166,231.4969,0,U,67363,999,2351,.37741E-3,.3441E-4,0
TWILIGHT-1 OBJECT B,2026-004B,2026-06-18T16:56:13.408800,14.87706862,.0010056,97.8061,168.2548,120.1484,240.0730,0,U,67364,999,2351,.16419E-3,.1443E-4,0
LEMUR-2-MARIO-SOUSA,2026-004C,2026-06-18T17:33:02.559168,14.88523407,.0009821,97.7988,168.2616,129.4115,230.7973,0,U,67365,999,2352,.40685E-3,.3731E-4,0
LEMUR-2-SONNENBLUME,2026-004E,2026-06-18T17:31:01.511040,14.88321866,.0009285,97.7984,168.2443,130.8285,229.3738,0,U,67367,999,2352,.25495E-3,.2305E-4,0
LEMUR-2-WOBLER,2026-004F,2026-06-18T18:58:08.699808,14.88525199,.0009702,97.8038,168.4276,121.2570,238.9599,0,U,67368,999,2353,.31424E-3,.2869E-4,0
LEMUR-2-GRAM-E-SUE,2026-004H,2026-06-18T17:07:56.791200,14.88476289,.0008297,97.7971,168.2437,131.5026,228.6904,0,U,67370,999,2352,.17743E-3,.1594E-4,0
LEMUR-2-KATIE,2026-004AA,2026-06-17T23:03:35.412192,14.90052933,.00048599,97.8034,167.9644,91.4386,268.7388,0,U,67387,999,2342,.28486828E-3,.2696E-4,0
LEMUR-2-HCS-BAZUS,2026-004AB,2026-06-17T23:02:13.185312,14.90078149,.00044365,97.8022,167.9443,88.8187,271.3539,0,U,67388,999,2342,.45831617E-3,.4374E-4,0
