LEMUR-2-STARLIGHT       
1 66783U 25276DY  26169.70529125  .00004196  00000+0  34970-3 0  9992
2 66783  97.5254 240.2923 0015111 123.8840 236.3823 14.99053840 30420
LEMUR-2-TARTIFLETTE     
1 66784U 25276DZ  26169.43674262  .00003785  00000+0  31579-3 0  9991
2 66784  97.5263 240.0399 0014066 130.8813 229.3631 14.99079284 30386
LEMUR-2-VUKASIN         
1 66785U 25276EA  26169.76277765  .00004145  00000+0  33450-3 0  9996
2 66785  97.5302 240.6552 0005991 120.8957 239.2857 15.00380830 30388
LEMUR-2-HOTSPUR-TOM     
1 66786U 25276EB  26169.69641856  .00004506  00000+0  37592-3 0  9997
2 66786  97.5258 240.2719 0015411 123.2453 237.0249 14.98975134 30357
LEMUR-2-MYRA            
1 66787U 25276EC  26169.72768713  .00006515  00000+0  52324-3 0  9996
2 66787  97.5213 240.5583 0016765 136.4998 223.7552 15.00265154 30441
LEMUR-2 FIKRETDENGIZ    
1 67363U 26004A   26169.74785970  .00003441  00000+0  37741-3 0  9994
2 67363  97.8017 168.2816 0010249 128.7166 231.4969 14.88334861 23519
TWILIGHT-1 OBJECT B     
1 67364U 26004B   26169.70571075  .00001443  00000+0  16419-3 0  9999
2 67364  97.8061 168.2548 0010056 120.1484 240.0730 14.87706862 23511
LEMUR-2-MARIO-SOUSA     
1 67365U 26004C   26169.73127962  .00003731  00000+0  40685-3 0  9999
2 67365  97.7988 168.2616 0009821 129.4115 230.7973 14.88523407 23525
LEMUR-2-SONNENBLUME     
1 67367U 26004E   26169.72987860  .00002305  00000+0  25495-3 0  9999
2 67367  97.7984 168.2443 0009285 130.8285 229.3738 14.88321866 23527
LEMUR-2-WOBLER          
1 67368U 26004F   26169.79037847  .00002869  00000+0  31424-3 0  9992
2 67368  97.8038 168.4276 0009702 121.2570 238.9599 14.88525199 23537
LEMUR-2-GRAM-E-SUE      
1 67370U 26004H   26169.71385175  .00001594  00000+0  17743-3 0  9999
2 67370  97.7971 168.2437 0008297 131.5026 228.6904 14.88476289 23520
LEMUR-2-KATIE           
1 67387U 26004AA  26168.96082653  .00002696  00000+0  28487-3 0  9999
2 67387  97.8034 167.9644 0004859  91.4386 268.7388 14.90052933 23427
LEMUR-2-HCS-BAZUS       
1 67388U 26004AB  26168.95987483  .00004374  00000+0  45832-3 0  9992
2 67388  97.8022 167.9443 0004436  88.8187 271.3539 14.90078149 23427
